GLOBALSTAR M024         
1 25883U 99043A   25039.09077090 -.00000104  00000+0 -13864-2 0  9992
2 25883  52.0047 311.9129 0000809 249.3792 217.9697 11.10165886100521
GLOBALSTAR M027         
1 25884U 99043B   25039.33478723 -.00000096  00000+0 -12383-2 0  9993
2 25884  52.0240  25.6880 0021420 143.1464 217.0806 11.04370628127009
GLOBALSTAR M054         
1 25885U 99043C   25039.58949987 -.00000085  00000+0 -34409-3 0  9998
2 25885  52.0124 174.0026 0004897 320.9432 124.0198 11.39216193104393
GLOBALSTAR M053         
1 25886U 99043D   25039.44161296 -.00000074  00000+0 -16474-3 0  9993
2 25886  51.9978 114.3086 0003571 209.7905 163.3557 11.27662864104920
GLOBALSTAR M050         
1 25908U 99049B   25039.41203549 -.00000032  00000+0  63231-3 0  9995
2 25908  51.9988 110.3344 0009819 134.9914 307.6232 12.07448087132639
GLOBALSTAR M033         
1 25909U 99049C   25039.58812747 -.00000176  00000+0 -80699-3 0  9997
2 25909  51.9940 350.5649 0013448   0.0290   0.0556 12.20289032520044
GLOBALSTAR M055         
1 25910U 99049D   25039.15140767 -.00000066  00000+0  24218-3 0  9990
2 25910  52.0048   8.8233 0006774 223.1788 136.8533 12.29420374152413
